[
    {
        "Altitude(m)": 612502.2011100784,
        "Argument of Periapsis(deg)": 0.0,
        "Eccentricity": 0.0,
        "Inclination(deg)": 60.0,
        "Latitude(deg)": -28.135994182733242,
        "Longitude(deg)": 152.14820108235693,
        "Mean Anomaly(deg)": -32.72729999999996,
        "RAAN(deg)": 270.0,
        "Satellite Name": "Test1 1208",
        "Satellite Number": 1208,
        "Semi-Major Axis(m)": 6980739.136638005,
        "Time(s)": 0
    },
    {
        "Altitude(m)": 612308.6490911801,
        "Argument of Periapsis(deg)": 0.00010418945913296404,
        "Eccentricity": 0.0,
        "Inclination(deg)": 60.0,
        "Latitude(deg)": -27.623050051825356,
        "Longitude(deg)": 152.50167633473924,
        "Mean Anomaly(deg)": -32.1071938545381,
        "RAAN(deg)": 269.99957995086027,
        "Satellite Name": "Test1 1208",
        "Satellite Number": 1208,
        "Semi-Major Axis(m)": 6980739.136638005,
        "Time(s)": 10
    }
]